<?xml version="1.0" encoding="UTF-8"?>
<ndm xmlns:xsi="http://www.w3.org/2001/XMLSchema-instance" xsi:noNamespaceSchemaLocation="https://sanaregistry.org/r/ndmxml_unqualified/ndmxml-2.0.0-master-2.0.xsd">
<omm id="CCSDS_OMM_VERS" version="2.0">
<header><CREATION_DATE/><ORIGINATOR/></header><body><segment><metadata><OBJECT_NAME>KUIPER-00116</OBJECT_NAME><OBJECT_ID>2025-171X</OBJECT_ID><CENTER_NAME>EARTH</CENTER_NAME><REF_FRAME>TEME</REF_FRAME><TIME_SYSTEM>UTC</TIME_SYSTEM><MEAN_ELEMENT_THEORY>SGP4</MEAN_ELEMENT_THEORY></metadata><data><meanElements><EPOCH>2026-01-24T06:14:56.753376</EPOCH><MEAN_MOTION>14.79864961</MEAN_MOTION><ECCENTRICITY>.00056061</ECCENTRICITY><INCLINATION>51.9010</INCLINATION><RA_OF_ASC_NODE>9.5956</RA_OF_ASC_NODE><ARG_OF_PERICENTER>315.1341</ARG_OF_PERICENTER><MEAN_ANOMALY>44.9167</MEAN_ANOMALY></meanElements><tleParameters><EPHEMERIS_TYPE>0</EPHEMERIS_TYPE><CLASSIFICATION_TYPE>U</CLASSIFICATION_TYPE><NORAD_CAT_ID>65153</NORAD_CAT_ID><ELEMENT_SET_NO>999</ELEMENT_SET_NO><REV_AT_EPOCH>2609</REV_AT_EPOCH><BSTAR>.42724077E-2</BSTAR><MEAN_MOTION_DOT>.3246E-3</MEAN_MOTION_DOT><MEAN_MOTION_DDOT>0</MEAN_MOTION_DDOT></tleParameters></data></segment></body></omm>
<omm id="CCSDS_OMM_VERS" version="2.0">
<header><CREATION_DATE/><ORIGINATOR/></header><body><segment><metadata><OBJECT_NAME>KUIPER-00118</OBJECT_NAME><OBJECT_ID>2025-171Y</OBJECT_ID><CENTER_NAME>EARTH</CENTER_NAME><REF_FRAME>TEME</REF_FRAME><TIME_SYSTEM>UTC</TIME_SYSTEM><MEAN_ELEMENT_THEORY>SGP4</MEAN_ELEMENT_THEORY></metadata><data><meanElements><EPOCH>2026-01-24T06:11:00.924576</EPOCH><MEAN_MOTION>14.79925235</MEAN_MOTION><ECCENTRICITY>.00012156</ECCENTRICITY><INCLINATION>51.9015</INCLINATION><RA_OF_ASC_NODE>12.0647</RA_OF_ASC_NODE><ARG_OF_PERICENTER>43.1595</ARG_OF_PERICENTER><MEAN_ANOMALY>316.9463</MEAN_ANOMALY></meanElements><tleParameters><EPHEMERIS_TYPE>0</EPHEMERIS_TYPE><CLASSIFICATION_TYPE>U</CLASSIFICATION_TYPE><NORAD_CAT_ID>65154</NORAD_CAT_ID><ELEMENT_SET_NO>999</ELEMENT_SET_NO><REV_AT_EPOCH>2606</REV_AT_EPOCH><BSTAR>.11494696E-2</BSTAR><MEAN_MOTION_DOT>.8551E-4</MEAN_MOTION_DOT><MEAN_MOTION_DDOT>0</MEAN_MOTION_DDOT></tleParameters></data></segment></body></omm>
<omm id="CCSDS_OMM_VERS" version="2.0">
<header><CREATION_DATE/><ORIGINATOR/></header><body><segment><metadata><OBJECT_NAME>KUIPER-00119</OBJECT_NAME><OBJECT_ID>2025-171Z</OBJECT_ID><CENTER_NAME>EARTH</CENTER_NAME><REF_FRAME>TEME</REF_FRAME><TIME_SYSTEM>UTC</TIME_SYSTEM><MEAN_ELEMENT_THEORY>SGP4</MEAN_ELEMENT_THEORY></metadata><data><meanElements><EPOCH>2026-01-24T04:52:13.045728</EPOCH><MEAN_MOTION>14.80054230</MEAN_MOTION><ECCENTRICITY>.00077061</ECCENTRICITY><INCLINATION>51.9015</INCLINATION><RA_OF_ASC_NODE>359.8830</RA_OF_ASC_NODE><ARG_OF_PERICENTER>343.8674</ARG_OF_PERICENTER><MEAN_ANOMALY>16.2042</MEAN_ANOMALY></meanElements><tleParameters><EPHEMERIS_TYPE>0</EPHEMERIS_TYPE><CLASSIFICATION_TYPE>U</CLASSIFICATION_TYPE><NORAD_CAT_ID>65155</NORAD_CAT_ID><ELEMENT_SET_NO>999</ELEMENT_SET_NO><REV_AT_EPOCH>2622</REV_AT_EPOCH><BSTAR>.10156409E-2</BSTAR><MEAN_MOTION_DOT>.7554E-4</MEAN_MOTION_DOT><MEAN_MOTION_DDOT>0</MEAN_MOTION_DDOT></tleParameters></data></segment></body></omm>
<omm id="CCSDS_OMM_VERS" version="2.0">
<header><CREATION_DATE/><ORIGINATOR/></header><body><segment><metadata><OBJECT_NAME>KUIPER-00120</OBJECT_NAME><OBJECT_ID>2025-217A</OBJECT_ID><CENTER_NAME>EARTH</CENTER_NAME><REF_FRAME>TEME</REF_FRAME><TIME_SYSTEM>UTC</TIME_SYSTEM><MEAN_ELEMENT_THEORY>SGP4</MEAN_ELEMENT_THEORY></metadata><data><meanElements><EPOCH>2026-01-23T21:53:52.738080</EPOCH><MEAN_MOTION>14.76455868</MEAN_MOTION><ECCENTRICITY>.0003657</ECCENTRICITY><INCLINATION>51.8968</INCLINATION><RA_OF_ASC_NODE>250.5116</RA_OF_ASC_NODE><ARG_OF_PERICENTER>131.7141</ARG_OF_PERICENTER><MEAN_ANOMALY>228.4133</MEAN_ANOMALY></meanElements><tleParameters><EPHEMERIS_TYPE>0</EPHEMERIS_TYPE><CLASSIFICATION_TYPE>U</CLASSIFICATION_TYPE><NORAD_CAT_ID>65762</NORAD_CAT_ID><ELEMENT_SET_NO>999</ELEMENT_SET_NO><REV_AT_EPOCH>1811</REV_AT_EPOCH><BSTAR>.81878E-3</BSTAR><MEAN_MOTION_DOT>.554E-4</MEAN_MOTION_DOT><MEAN_MOTION_DDOT>0</MEAN_MOTION_DDOT></tleParameters></data></segment></body></omm>
<omm id="CCSDS_OMM_VERS" version="2.0">
<header><CREATION_DATE/><ORIGINATOR/></header><body><segment><metadata><OBJECT_NAME>KUIPER-00132</OBJECT_NAME><OBJECT_ID>2025-217B</OBJECT_ID><CENTER_NAME>EARTH</CENTER_NAME><REF_FRAME>TEME</REF_FRAME><TIME_SYSTEM>UTC</TIME_SYSTEM><MEAN_ELEMENT_THEORY>SGP4</MEAN_ELEMENT_THEORY></metadata><data><meanElements><EPOCH>2026-01-24T06:25:55.657920</EPOCH><MEAN_MOTION>15.38388134</MEAN_MOTION><ECCENTRICITY>.00084189</ECCENTRICITY><INCLINATION>51.8595</INCLINATION><RA_OF_ASC_NODE>218.9067</RA_OF_ASC_NODE><ARG_OF_PERICENTER>158.4733</ARG_OF_PERICENTER><MEAN_ANOMALY>201.6609</MEAN_ANOMALY></meanElements><tleParameters><EPHEMERIS_TYPE>0</EPHEMERIS_TYPE><CLASSIFICATION_TYPE>U</CLASSIFICATION_TYPE><NORAD_CAT_ID>65763</NORAD_CAT_ID><ELEMENT_SET_NO>999</ELEMENT_SET_NO><REV_AT_EPOCH>1858</REV_AT_EPOCH><BSTAR>.22906547E-2</BSTAR><MEAN_MOTION_DOT>.88816E-3</MEAN_MOTION_DOT><MEAN_MOTION_DDOT>0</MEAN_MOTION_DDOT></tleParameters></data></segment></body></omm>
<omm id="CCSDS_OMM_VERS" version="2.0">
<header><CREATION_DATE/><ORIGINATOR/></header><body><segment><metadata><OBJECT_NAME>KUIPER-00133</OBJECT_NAME><OBJECT_ID>2025-217C</OBJECT_ID><CENTER_NAME>EARTH</CENTER_NAME><REF_FRAME>TEME</REF_FRAME><TIME_SYSTEM>UTC</TIME_SYSTEM><MEAN_ELEMENT_THEORY>SGP4</MEAN_ELEMENT_THEORY></metadata><data><meanElements><EPOCH>2026-01-23T22:24:38.421792</EPOCH><MEAN_MOTION>14.79940944</MEAN_MOTION><ECCENTRICITY>.0002307</ECCENTRICITY><INCLINATION>51.9047</INCLINATION><RA_OF_ASC_NODE>251.0161</RA_OF_ASC_NODE><ARG_OF_PERICENTER>185.6234</ARG_OF_PERICENTER><MEAN_ANOMALY>174.4702</MEAN_ANOMALY></meanElements><tleParameters><EPHEMERIS_TYPE>0</EPHEMERIS_TYPE><CLASSIFICATION_TYPE>U</CLASSIFICATION_TYPE><NORAD_CAT_ID>65764</NORAD_CAT_ID><ELEMENT_SET_NO>999</ELEMENT_SET_NO><REV_AT_EPOCH>1811</REV_AT_EPOCH><BSTAR>.40023E-3</BSTAR><MEAN_MOTION_DOT>.2831E-4</MEAN_MOTION_DOT><MEAN_MOTION_DDOT>0</MEAN_MOTION_DDOT></tleParameters></data></segment></body></omm>
<omm id="CCSDS_OMM_VERS" version="2.0">
<header><CREATION_DATE/><ORIGINATOR/></header><body><segment><metadata><OBJECT_NAME>KUIPER-00139</OBJECT_NAME><OBJECT_ID>2025-217D</OBJECT_ID><CENTER_NAME>EARTH</CENTER_NAME><REF_FRAME>TEME</REF_FRAME><TIME_SYSTEM>UTC</TIME_SYSTEM><MEAN_ELEMENT_THEORY>SGP4</MEAN_ELEMENT_THEORY></metadata><data><meanElements><EPOCH>2026-01-23T14:19:59.986848</EPOCH><MEAN_MOTION>15.02362947</MEAN_MOTION><ECCENTRICITY>.00081478</ECCENTRICITY><INCLINATION>51.8836</INCLINATION><RA_OF_ASC_NODE>240.2727</RA_OF_ASC_NODE><ARG_OF_PERICENTER>163.2028</ARG_OF_PERICENTER><MEAN_ANOMALY>196.9215</MEAN_ANOMALY></meanElements><tleParameters><EPHEMERIS_TYPE>0</EPHEMERIS_TYPE><CLASSIFICATION_TYPE>U</CLASSIFICATION_TYPE><NORAD_CAT_ID>65765</NORAD_CAT_ID><ELEMENT_SET_NO>999</ELEMENT_SET_NO><REV_AT_EPOCH>1823</REV_AT_EPOCH><BSTAR>.65248083E-3</BSTAR><MEAN_MOTION_DOT>.8473E-4</MEAN_MOTION_DOT><MEAN_MOTION_DDOT>0</MEAN_MOTION_DDOT></tleParameters></data></segment></body></omm>
<omm id="CCSDS_OMM_VERS" version="2.0">
<header><CREATION_DATE/><ORIGINATOR/></header><body><segment><metadata><OBJECT_NAME>KUIPER-00142</OBJECT_NAME><OBJECT_ID>2025-217E</OBJECT_ID><CENTER_NAME>EARTH</CENTER_NAME><REF_FRAME>TEME</REF_FRAME><TIME_SYSTEM>UTC</TIME_SYSTEM><MEAN_ELEMENT_THEORY>SGP4</MEAN_ELEMENT_THEORY></metadata><data><meanElements><EPOCH>2026-01-23T20:26:11.848992</EPOCH><MEAN_MOTION>14.79943032</MEAN_MOTION><ECCENTRICITY>.0000105</ECCENTRICITY><INCLINATION>51.8977</INCLINATION><RA_OF_ASC_NODE>233.8703</RA_OF_ASC_NODE><ARG_OF_PERICENTER>36.4978</ARG_OF_PERICENTER><MEAN_ANOMALY>323.5991</MEAN_ANOMALY></meanElements><tleParameters><EPHEMERIS_TYPE>0</EPHEMERIS_TYPE><CLASSIFICATION_TYPE>U</CLASSIFICATION_TYPE><NORAD_CAT_ID>65766</NORAD_CAT_ID><ELEMENT_SET_NO>999</ELEMENT_SET_NO><REV_AT_EPOCH>1834</REV_AT_EPOCH><BSTAR>.52359484E-3</BSTAR><MEAN_MOTION_DOT>.3774E-4</MEAN_MOTION_DOT><MEAN_MOTION_DDOT>0</MEAN_MOTION_DDOT></tleParameters></data></segment></body></omm>
<omm id="CCSDS_OMM_VERS" version="2.0">
<header><CREATION_DATE/><ORIGINATOR/></header><body><segment><metadata><OBJECT_NAME>KUIPER-00145</OBJECT_NAME><OBJECT_ID>2025-217F</OBJECT_ID><CENTER_NAME>EARTH</CENTER_NAME><REF_FRAME>TEME</REF_FRAME><TIME_SYSTEM>UTC</TIME_SYSTEM><MEAN_ELEMENT_THEORY>SGP4</MEAN_ELEMENT_THEORY></metadata><data><meanElements><EPOCH>2026-01-23T20:22:12.456192</EPOCH><MEAN_MOTION>14.79969944</MEAN_MOTION><ECCENTRICITY>.00015441</ECCENTRICITY><INCLINATION>51.8971</INCLINATION><RA_OF_ASC_NODE>236.3935</RA_OF_ASC_NODE><ARG_OF_PERICENTER>76.7333</ARG_OF_PERICENTER><MEAN_ANOMALY>283.3801</MEAN_ANOMALY></meanElements><tleParameters><EPHEMERIS_TYPE>0</EPHEMERIS_TYPE><CLASSIFICATION_TYPE>U</CLASSIFICATION_TYPE><NORAD_CAT_ID>65767</NORAD_CAT_ID><ELEMENT_SET_NO>999</ELEMENT_SET_NO><REV_AT_EPOCH>1830</REV_AT_EPOCH><BSTAR>-.23443324E-3</BSTAR><MEAN_MOTION_DOT>-.201E-4</MEAN_MOTION_DOT><MEAN_MOTION_DDOT>0</MEAN_MOTION_DDOT></tleParameters></data></segment></body></omm>

</ndm>
